start=new Date('2021-11-21T00:00:00.000Z').valueOf();
sats=[{"CENTER_NAME":"EARTH","ELEMENT_SET_NO":"999","APOAPSIS":"548.500","FILE":"3220049","INCLINATION":"53.0538","MEAN_MOTION_DDOT":"0.0000000000000","BSTAR":"0.00003075800000","TLE_LINE1":"1 47668U 21012BA  21324.28425692  .00000176  00000-0  30758-4 0  9998","SITE":"AFETR","MEAN_ELEMENT_THEORY":"SGP4","GP_ID":"190142871","DECAY_DATE":null,"CLASSIFICATION_TYPE":"U","PERIOD":"95.593","EPHEMERIS_TYPE":"0","ARG_OF_PERICENTER":"68.0470","OBJECT_NAME":"STARLINK-2059","SEMIMAJOR_AXIS":"6925.368","MEAN_MOTION_DOT":"0.00000176","MEAN_MOTION":"15.06393768","REF_FRAME":"TEME","MEAN_ANOMALY":"292.0713","REV_AT_EPOCH":"4357","OBJECT_ID":"2021-012BA","EPOCH":"2021-11-20T06:49:19.797888","TLE_LINE2":"2 47668  53.0538 261.4545 0001830  68.0470 292.0713 15.06393768 43572","LAUNCH_DATE":"2021-02-16","COUNTRY_CODE":"US","PERIAPSIS":"545.965","RA_OF_ASC_NODE":"261.4545","RCS_SIZE":"LARGE","OBJECT_TYPE":"PAYLOAD","NORAD_CAT_ID":"47668","ECCENTRICITY":"0.00018300","TIME_SYSTEM":"UTC"},{"ELEMENT_SET_NO":"999","CENTER_NAME":"EARTH","FILE":"3220098","APOAPSIS":"549.100","INCLINATION":"53.0520","MEAN_MOTION_DDOT":"0.0000000000000","BSTAR":"-0.00027536000000","TLE_LINE1":"1 47669U 21012BB  21324.91667824 -.00004381  00000-0 -27536-3 0  9997","SITE":"AFETR","MEAN_ELEMENT_THEORY":"SGP4","GP_ID":"190144900","DECAY_DATE":null,"CLASSIFICATION_TYPE":"U","PERIOD":"95.592","EPHEMERIS_TYPE":"0","ARG_OF_PERICENTER":"59.4978","OBJECT_NAME":"STARLINK-2060","SEMIMAJOR_AXIS":"6925.356","MEAN_MOTION_DOT":"-0.00004381","MEAN_MOTION":"15.06397722","REF_FRAME":"TEME","MEAN_ANOMALY":"129.8129","REV_AT_EPOCH":"4419","OBJECT_ID":"2021-012BB","EPOCH":"2021-11-20T22:00:00.999936","TLE_LINE2":"2 47669  53.0520 183.5987 0002714  59.4978 129.8129 15.06397722 44198","LAUNCH_DATE":"2021-02-16","COUNTRY_CODE":"US","PERIAPSIS":"545.341","RA_OF_ASC_NODE":"183.5987","RCS_SIZE":"MEDIUM","OBJECT_TYPE":"PAYLOAD","NORAD_CAT_ID":"47669","ECCENTRICITY":"0.00027140","TIME_SYSTEM":"UTC"},{"RA_OF_ASC_NODE":"260.1745","RCS_SIZE":"LARGE","OBJECT_TYPE":"PAYLOAD","NORAD_CAT_ID":"47670","ECCENTRICITY":"0.00079280","TIME_SYSTEM":"UTC","REF_FRAME":"TEME","MEAN_ANOMALY":"311.1056","REV_AT_EPOCH":"4309","OBJECT_ID":"2021-012BC","EPOCH":"2021-11-20T13:32:43.457568","TLE_LINE2":"2 47670  53.0545 260.1745 0007928  49.0618 311.1056 15.06397072 43090","LAUNCH_DATE":"2021-02-16","COUNTRY_CODE":"US","PERIAPSIS":"541.732","GP_ID":"190144902","DECAY_DATE":null,"CLASSIFICATION_TYPE":"U","PERIOD":"95.592","EPHEMERIS_TYPE":"0","ARG_OF_PERICENTER":"49.0618","OBJECT_NAME":"STARLINK-2062","SEMIMAJOR_AXIS":"6925.358","MEAN_MOTION_DOT":"0.00002312","MEAN_MOTION":"15.06397072","ELEMENT_SET_NO":"999","CENTER_NAME":"EARTH","APOAPSIS":"552.713","FILE":"3220098","INCLINATION":"53.0545","MEAN_MOTION_DDOT":"0.0000000000000","BSTAR":"0.00017412000000","TLE_LINE1":"1 47670U 21012BC  21324.56439187  .00002312  00000-0  17412-3 0  9991","SITE":"AFETR","MEAN_ELEMENT_THEORY":"SGP4"},{"MEAN_MOTION_DOT":"0.00000061","SEMIMAJOR_AXIS":"6925.384","MEAN_MOTION":"15.06388516","EPHEMERIS_TYPE":"0","OBJECT_NAME":"STARLINK-2064","ARG_OF_PERICENTER":"62.9570","CLASSIFICATION_TYPE":"U","PERIOD":"95.593","GP_ID":"190142621","DECAY_DATE":null,"MEAN_ELEMENT_THEORY":"SGP4","BSTAR":"0.00002298100000","SITE":"AFETR","TLE_LINE1":"1 47671U 21012BD  21324.28056542  .00000061  00000-0  22981-4 0  9998","MEAN_MOTION_DDOT":"0.0000000000000","APOAPSIS":"548.642","FILE":"3220049","ELEMENT_SET_NO":"999","CENTER_NAME":"EARTH","INCLINATION":"53.0552","TIME_SYSTEM":"UTC","NORAD_CAT_ID":"47671","ECCENTRICITY":"0.00020120","OBJECT_TYPE":"PAYLOAD","RA_OF_ASC_NODE":"261.4677","RCS_SIZE":"LARGE","LAUNCH_DATE":"2021-02-16","PERIAPSIS":"545.855","COUNTRY_CODE":"US","EPOCH":"2021-11-20T06:44:00.852288","TLE_LINE2":"2 47671  53.0552 261.4677 0002012  62.9570 297.1624 15.06388516 43577","REV_AT_EPOCH":"4357","OBJECT_ID":"2021-012BD","MEAN_ANOMALY":"297.1624","REF_FRAME":"TEME"},{"OBJECT_ID":"2021-012BE","REV_AT_EPOCH":"4369","REF_FRAME":"TEME","MEAN_ANOMALY":"304.6189","COUNTRY_CODE":"US","PERIAPSIS":"545.402","LAUNCH_DATE":"2021-02-16","TLE_LINE2":"2 47672  53.0528 251.2482 0002688  55.5053 304.6189 15.06383702 43690","EPOCH":"2021-11-20T07:49:02.657280","OBJECT_TYPE":"PAYLOAD","RCS_SIZE":"LARGE","RA_OF_ASC_NODE":"251.2482","TIME_SYSTEM":"UTC","ECCENTRICITY":"0.00026880","NORAD_CAT_ID":"47672","MEAN_MOTION_DDOT":"0.0000000000000","INCLINATION":"53.0528","ELEMENT_SET_NO":"999","CENTER_NAME":"EARTH","FILE":"3220049","APOAPSIS":"549.125","MEAN_ELEMENT_THEORY":"SGP4","TLE_LINE1":"1 47672U 21012BE  21324.32572520 -.00000356  00000-0 -49823-5 0  9997","SITE":"AFETR","BSTAR":"-0.00000498230000","PERIOD":"95.593","CLASSIFICATION_TYPE":"U","DECAY_DATE":null,"GP_ID":"190142372","MEAN_MOTION":"15.06383702","SEMIMAJOR_AXIS":"6925.399","MEAN_MOTION_DOT":"-0.00000356","ARG_OF_PERICENTER":"55.5053","OBJECT_NAME":"STARLINK-2065","EPHEMERIS_TYPE":"0"},{"SEMIMAJOR_AXIS":"6925.398","MEAN_MOTION_DOT":"0.00003915","MEAN_MOTION":"15.06384024","EPHEMERIS_TYPE":"0","ARG_OF_PERICENTER":"67.1675","OBJECT_NAME":"STARLINK-2066","CLASSIFICATION_TYPE":"U","PERIOD":"95.593","GP_ID":"190141620","DECAY_DATE":null,"MEAN_ELEMENT_THEORY":"SGP4","BSTAR":"0.00028172000000","TLE_LINE1":"1 47673U 21012BF  21324.30269386  .00003915  00000-0  28172-3 0  9993","SITE":"AFETR","MEAN_MOTION_DDOT":"0.0000000000000","CENTER_NAME":"EARTH","ELEMENT_SET_NO":"999","FILE":"3220049","APOAPSIS":"548.542","INCLINATION":"53.0550","TIME_SYSTEM":"UTC","NORAD_CAT_ID":"47673","ECCENTRICITY":"0.00018480","OBJECT_TYPE":"PAYLOAD","RA_OF_ASC_NODE":"261.3530","RCS_SIZE":"LARGE","LAUNCH_DATE":"2021-02-16","COUNTRY_CODE":"US","PERIAPSIS":"545.983","EPOCH":"2021-11-20T07:15:52.749504","TLE_LINE2":"2 47673  53.0550 261.3530 0001848  67.1675 292.9509 15.06384024 43567","REV_AT_EPOCH":"4356","OBJECT_ID":"2021-012BF","REF_FRAME":"TEME","MEAN_ANOMALY":"292.9509"},{"LAUNCH_DATE":"2021-02-16","COUNTRY_CODE":"US","PERIAPSIS":"545.987","EPOCH":"2021-11-20T07:37:05.503584","TLE_LINE2":"2 47674  53.0540 261.2816 0001816  64.5984 295.5192 15.06389713 43570","REV_AT_EPOCH":"4357","OBJECT_ID":"2021-012BG","REF_FRAME":"TEME","MEAN_ANOMALY":"295.5192","TIME_SYSTEM":"UTC","NORAD_CAT_ID":"47674","ECCENTRICITY":"0.00018160","OBJECT_TYPE":"PAYLOAD","RA_OF_ASC_NODE":"261.2816","RCS_SIZE":"LARGE","MEAN_ELEMENT_THEORY":"SGP4","BSTAR":"-0.00003861600000","TLE_LINE1":"1 47674U 21012BG  21324.31742481 -.00000857  00000-0 -38616-4 0  9996","SITE":"AFETR","MEAN_MOTION_DDOT":"0.0000000000000","CENTER_NAME":"EARTH","ELEMENT_SET_NO":"999","APOAPSIS":"548.503","FILE":"3220049","INCLINATION":"53.0540","SEMIMAJOR_AXIS":"6925.380","MEAN_MOTION_DOT":"-0.00000857","MEAN_MOTION":"15.06389713","EPHEMERIS_TYPE":"0","ARG_OF_PERICENTER":"64.5984","OBJECT_NAME":"STARLINK-2067","CLASSIFICATION_TYPE":"U","PERIOD":"95.593","GP_ID":"190141870","DECAY_DATE":null},{"SITE":"AFETR","TLE_LINE1":"1 47675U 21012BH  21324.31005382 -.00001060  00000-0 -52278-4 0  9996","BSTAR":"-0.00005227800000","MEAN_ELEMENT_THEORY":"SGP4","INCLINATION":"53.0558","FILE":"3220049","APOAPSIS":"548.641","ELEMENT_SET_NO":"999","CENTER_NAME":"EARTH","MEAN_MOTION_DDOT":"0.0000000000000","OBJECT_NAME":"STARLINK-2078","ARG_OF_PERICENTER":"62.2005","EPHEMERIS_TYPE":"0","MEAN_MOTION":"15.06394095","MEAN_MOTION_DOT":"-0.00001060","SEMIMAJOR_AXIS":"6925.367","DECAY_DATE":null,"GP_ID":"190142122","PERIOD":"95.593","CLASSIFICATION_TYPE":"U","TLE_LINE2":"2 47675  53.0558 261.3215 0002035  62.2005 297.9190 15.06394095 43570","EPOCH":"2021-11-20T07:26:28.650048","PERIAPSIS":"545.822","COUNTRY_CODE":"US","LAUNCH_DATE":"2021-02-16","MEAN_ANOMALY":"297.9190","REF_FRAME":"TEME","OBJECT_ID":"2021-012BH","REV_AT_EPOCH":"4357","ECCENTRICITY":"0.00020350","NORAD_CAT_ID":"47675","TIME_SYSTEM":"UTC","RCS_SIZE":"LARGE","RA_OF_ASC_NODE":"261.3215","OBJECT_TYPE":"PAYLOAD"},{"OBJECT_NAME":"STARLINK-2083","ARG_OF_PERICENTER":"300.9741","EPHEMERIS_TYPE":"0","MEAN_MOTION":"15.73227464","MEAN_MOTION_DOT":"-0.00037908","SEMIMAJOR_AXIS":"6727.817","DECAY_DATE":null,"GP_ID":"190142872","PERIOD":"91.532","CLASSIFICATION_TYPE":"U","SITE":"AFETR","TLE_LINE1":"1 47676U 21012BJ  21324.58334491 -.00037908  00000-0 -26587-3 0  9995","BSTAR":"-0.00026587000000","MEAN_ELEMENT_THEORY":"SGP4","INCLINATION":"53.0524","FILE":"3220049","APOAPSIS":"355.166","ELEMENT_SET_NO":"999","CENTER_NAME":"EARTH","MEAN_MOTION_DDOT":"0.0000000000000","ECCENTRICITY":"0.00081510","NORAD_CAT_ID":"47676","TIME_SYSTEM":"UTC","RCS_SIZE":"LARGE","RA_OF_ASC_NODE":"162.6309","OBJECT_TYPE":"PAYLOAD","TLE_LINE2":"2 47676  53.0524 162.6309 0008151 300.9741 156.6951 15.73227464  3699","EPOCH":"2021-11-20T14:00:01.000224","PERIAPSIS":"344.198","COUNTRY_CODE":"US","LAUNCH_DATE":"2021-02-16","MEAN_ANOMALY":"156.6951","REF_FRAME":"TEME","OBJECT_ID":"2021-012BJ","REV_AT_EPOCH":"369"},{"REV_AT_EPOCH":"4329","OBJECT_ID":"2021-012BK","REF_FRAME":"TEME","MEAN_ANOMALY":"289.7567","LAUNCH_DATE":"2021-02-16","COUNTRY_CODE":"US","PERIAPSIS":"545.942","EPOCH":"2021-11-20T08:43:26.012064","TLE_LINE2":"2 47677  53.0561 281.0874 0001842  70.3621 289.7567 15.06398600 43297","OBJECT_TYPE":"PAYLOAD","RA_OF_ASC_NODE":"281.0874","RCS_SIZE":"LARGE","TIME_SYSTEM":"UTC","NORAD_CAT_ID":"47677","ECCENTRICITY":"0.00018420","MEAN_MOTION_DDOT":"0.0000000000000","ELEMENT_SET_NO":"999","CENTER_NAME":"EARTH","FILE":"3220049","APOAPSIS":"548.493","INCLINATION":"53.0561","MEAN_ELEMENT_THEORY":"SGP4","BSTAR":"-0.00000447320000","TLE_LINE1":"1 47677U 21012BK  21324.36349551 -.00000348  00000-0 -44732-5 0  9997","SITE":"AFETR","CLASSIFICATION_TYPE":"U","PERIOD":"95.592","GP_ID":"190141121","DECAY_DATE":null,"SEMIMAJOR_AXIS":"6925.353","MEAN_MOTION_DOT":"-0.00000348","MEAN_MOTION":"15.06398600","EPHEMERIS_TYPE":"0","ARG_OF_PERICENTER":"70.3621","OBJECT_NAME":"STARLINK-2090"}];
